[{"OBJECT_NAME":"CUTE-1.7+APD II (CO-65)","OBJECT_ID":"2008-021C","EPOCH":"2026-03-09T21:54:04.726080","MEAN_MOTION":15.08376872,"ECCENTRICITY":0.00096053,"INCLINATION":97.8207,"RA_OF_ASC_NODE":48.3884,"ARG_OF_PERICENTER":18.7003,"MEAN_ANOMALY":341.4575,"EPHEMERIS_TYPE":0,"CLASSIFICATION_TYPE":"U","NORAD_CAT_ID":32785,"ELEMENT_SET_NO":999,"REV_AT_EPOCH":97022,"BSTAR":0.00047295391,"MEAN_MOTION_DOT":7.295e-5,"MEAN_MOTION_DDOT":0},{"OBJECT_NAME":"STARLINK-4522","OBJECT_ID":"2022-097A","EPOCH":"2026-03-09T12:35:34.822176","MEAN_MOTION":15.08840427,"ECCENTRICITY":0.0001689,"INCLINATION":53.22,"RA_OF_ASC_NODE":124.8663,"ARG_OF_PERICENTER":108.971,"MEAN_ANOMALY":251.1465,"EPHEMERIS_TYPE":0,"CLASSIFICATION_TYPE":"U","NORAD_CAT_ID":53388,"ELEMENT_SET_NO":999,"REV_AT_EPOCH":19882,"BSTAR":4.6594e-5,"MEAN_MOTION_DOT":4.54e-6,"MEAN_MOTION_DDOT":0}]
